#dP2022  5  4  0  0  0.00000000      97 __u+U IGS14 FIT  IAC
## 2208 259200.00000000   900.00000000 59703 0.0000000000000
+  115   C06C07C08C09C10C11C12C13C14C16C19C20C21C22C23C24C25
+        C26C27C28C29C30C32C33C34C35C36C37C38C39C40C41C42C43
+        C44C45C46E02E03E04E05E07E08E09E10E11E12E13E14E15E18
+        E19E21E24E25E26E27E30E31E33E34E36G01G02G03G04G05G06
+        G07G08G09G10G12G13G14G15G16G17G18G19G20G21G22G23G24
+        G25G26G27G28G29G30G31G32J02J03R01R02R03R04R05R07R08
+        R09R11R12R13R14R15R17R18R19R20R21R22R24  0  0  0  0
++         7  7  7  7  7  7  6  7  7  7  5  5  5  6  6  5  5
++         5  6  6  5  5  5  6  5  5  6  6  7  6  6  6  6  6
++         6  6  6  4  4  4  4  4  4  4  5  4  4  4  5  4  4
++         4  4  4  4  4  4  4  4  4  5  4  3  4  3  3  3  4
++         4  3  3  3  4  3  3  3  3  4  3  4  3  3  3  3  3
++         3  3  3  4  3  3  3  3  9  9  7  6  6  6  6  6  6
++         6  6  6  7  6  6  6  6  7  7  6  7  6  0  0  0  0
%c M  cc GPS ccc cccc cccc cccc cccc ccccc ccccc ccccc ccccc
%c cc cc ccc ccc cccc cccc cccc cccc ccccc ccccc ccccc ccccc
%f  1.2500000  1.025000000  0.00000000000  0.000000000000000
%f  0.0000000  0.000000000  0.00000000000  0.000000000000000
%i    0    0    0    0      0      0      0      0         0
%i    0    0    0    0      0      0      0      0         0
/* INFORMATION & ANALYSIS CENTER (IAC)            FINAL DATA
/* S/V CLOCKS ARE ALIGNED TO GNSS TIME                      
/* G:C1WC2W R:C1PC2P E:C1XC5X C:C2IC6I J:C1CC2S             
/* PCV:IGS14_2196 OL/AL:FES2004  NONE     YN ORB:CoN CLK:CoN
*  2022 05 04  8 30  0.00000000
PC06 -10612.938783  23143.010452 -33619.162284    -83.058650
PC07 -15833.883777  38355.183907   7006.520200   -122.144732
PC08    -10.836231  33955.047279  25096.644823    294.620781
PC09   -332.009453  24499.541238 -33912.065470   -755.607048
PC10  -8747.860344  38543.634045  14240.606381    133.834325
PC11 -27060.660449   1785.997750   6579.832408    331.172646
PC12 -23953.518532  -9202.950404 -10926.478129   -621.019868
PC13   6018.007275  37736.323557  18230.523569    -42.607524
PC14 -20249.237644  10363.044072  16150.444693    467.795693
PC16 -13804.900777  21792.475713 -33221.293859    127.491956
PC19  19067.784114 -18693.042032  -8120.602635    872.921750
PC20  18625.379984  -2440.426611 -20628.390646   -901.395189
PC21  -6873.615288 -16415.617235  21524.342111   -228.269543
PC22   8563.279715 -24791.260446   9584.448405   -973.166393
PC23    757.357079  24207.525050 -13859.221955   -930.353577
PC24 -19081.138068 -10376.542721 -17518.632348   -960.077532
PC25 -12295.888390  11169.331784 -22432.505283   -741.668146
PC26 -14978.614360 -23249.866733  -3592.789369    742.719708
PC27  16950.905722  13519.746075  17534.504537    717.852205
PC28  -3211.501370  15635.481575  22888.839251     62.761834
PC29  21853.218205  -9297.782975 -14660.618093    550.019891
PC30  27598.276394   3006.093942   2694.693156    497.969854
PC32   6979.549258  16365.023964 -21474.004656   -962.679018
PC33 -19003.253791  18685.740376   8248.241534   -965.885435
PC34 -27762.064700  -2420.780021  -1738.437544   -411.238424
PC35   3769.125958 -15711.964620 -22761.368943    258.253625
PC36  12880.990559 -10338.508312  22515.522460   -963.843086
PC37  13840.287130  24117.844975   2483.961930   -915.600501
PC38  -6586.463715  30000.629981  28977.334299    229.707983
PC39 -19786.523269  20750.461377 -30943.148899     34.972875
PC40 -22757.596094  35063.082258   4759.941245    266.203385
PC41  -8857.951963  24833.268633  -9078.808470   -965.823436
PC42 -18287.001107   1272.228993  21082.724908   -962.252331
PC43 -22417.595848   8886.506552  14053.981236   -926.142797
PC44 -17258.260786 -13111.084203 -17612.726016    648.523128
PC45  -1044.597653 -24277.555364  13704.895853    748.073564
PC46  18948.428048   8931.999859  18455.293245   -306.189939
PE02  16573.837258   1411.086478  24479.374089    296.956125
PE03  26839.618457  -4293.745071 -11732.883634   -554.700098
PE04 -23459.584407  16891.417538  -6346.568151  -1020.470522
PE05  14492.583197  11102.547013 -23290.818106   -184.846291
PE07   6094.639513 -19817.432775  21141.965067   -665.055900
PE08  23245.912827 -17083.072367   6670.262215   -523.229909
PE09  -5925.436770  19684.638488 -21281.612805   -506.398737
PE10  -5660.048485  15294.869178  24691.690957   -510.789637
PE11   5202.735889  19853.278068  21308.866335   3772.759318
PE12 -15204.967238   8636.279977  23882.671147   4630.913517
PE13  -4590.032553 -19601.158242 -21704.391622    428.453359
PE14  18122.033636   8557.295728  16102.740813  -1836.760326
PE15  15244.417402  -8521.664979 -23894.438679    747.766219
PE18 -10655.954967 -17201.663791 -23402.030149  -1489.320220
PE19 -26085.047901   2351.859623  13805.269612  -4089.063464
PE21 -10918.532521 -20984.617728 -17795.836767   -732.187315
PE24  -2288.236996  29516.281548   -692.171971   -596.098519
PE25  10779.066610  21213.743124  17610.424403   -572.703636
PE26 -22066.733732 -18851.990918  -5831.446520  -1104.693345
PE27   1355.298951 -29560.482692   -493.547493   -290.884990
PE30  13251.986225 -19757.109864  17592.938274   -482.605745
PE31 -12718.687998  20674.426510 -16939.196590   -496.081637
PE33 -26004.399188  -7540.102514  11980.950310   -456.983578
PE34  25975.721468   7323.377917 -12166.976361   -515.320918
PE36  21570.466757  19087.147806   6791.088324   -368.768738
PG01 -22061.189719 -13681.178511   6149.627516    370.573094
PG02  10874.468112  19936.762242  14302.945864   -653.277362
PG03 -13386.101953  -7971.334156  21419.163715   -231.600837
PG04 -22387.818038  -3040.629347  14041.289126   -170.402156
PG05   6730.863179  21771.367622 -13681.029856    -80.606698
PG06  -4108.166794  15125.078806  21492.504208    290.344321
PG07 -19568.936046     22.876686 -17780.715658    321.639758
PG08 -15452.314944  -8818.436394 -19869.469258    -66.578879
PG09 -25395.702295   6247.701283   4656.543783   -339.290457
PG10  11489.717374 -20806.089066 -11399.929479   -401.746833
PG12  11054.335842  12869.138528  20197.529388   -210.176178
PG13   5964.006741  14096.259495 -21869.376766    305.452757
PG14 -13089.883749  19600.375951 -12162.531956   -106.543547
PG15  17099.999227   7482.457790 -19416.524249    -63.945217
PG16   -895.361486 -24253.056754 -10499.606863   -497.791294
PG17 -19354.415106  14097.302744  11975.374136    608.421350
PG18  19350.832710    374.660017 -18244.042029    179.174001
PG19 -13526.405190  15032.822816  16848.454924    152.809479
PG20   1948.053746  26404.288306  -3337.272708    515.528285
PG21 -20289.930098 -17261.252799  -3268.667256    160.899648
PG22  10035.405947 -16305.266824  18747.048528    253.582659
PG23  14852.950378 -11054.137365 -19015.042763    -19.556827
PG24  22343.889916  14674.771629   1405.310987    246.947013
PG25  15518.079790  -2861.381721  21037.885310    320.304690
PG26   4300.857941 -25985.007587   1589.095569    203.233782
PG27  -2645.871483 -14974.205679 -21959.376966    196.772738
PG28  -9148.439883  24775.628873  -3293.020787    363.479285
PG29  25817.814643  -3616.572193   5208.025832   -510.009458
PG30 -13222.585397   9090.643885 -21111.075150   -526.524592
PG31   2421.722660 -16846.862350  20142.455351   -176.170322
PG32  16764.588427 -15978.291251  12974.755079   -119.363456
PJ02 -20279.603107  31051.590105 -15631.645352     -3.227777
PJ03 -28987.022560  23173.368595  25122.144249     -1.927556
PR01  -9497.475197  19588.466730 -13274.223277      8.385489
PR02   6323.795900   8998.195994 -22969.197691    517.370141
PR03  17436.523071  -5944.356055 -17567.364256     56.050998
PR04  18604.028708 -17265.357762  -2475.241318    139.845317
PR05   9606.253542 -19035.225054  14003.052005     92.282194
PR07 -17768.152890   6536.783045  17162.420745     34.643531
PR08 -18577.411253  17328.964909   2486.393642    -64.948397
PR09 -11261.486811 -20854.731822  -9513.948379     53.212924
PR11  -7000.897490  11922.110212 -21423.877094     39.801611
PR12   2887.941598  24005.266912  -8133.450239     18.265936
PR13  10680.787226  21583.065064   8395.498724    -21.814612
PR14  12502.678457   5708.057356  21494.386706     77.228550
PR15   6867.923489 -12674.408210  21062.330741     96.387171
PR17  24821.915424   4793.647680  -3525.907303    523.059421
PR18  17474.909183  -3752.836774 -18162.919974    115.695209
PR19   2539.696818 -10032.477789 -23318.961481   -187.760507
PR20 -17624.698620 -11818.888357 -14187.903458    -69.899499
PR21 -24641.353244  -4197.301325   5028.435535   -298.472017
PR22 -16946.211919   3979.321659  18671.595843   -180.984462
PR24  18313.338851  11533.316510  13518.974337     92.096880
EOF
